{"type":"FeatureCollection","features":[{"type":"Feature","id":10,"geometry":{"type":"Point","coordinates":[-81.1061332,24.709768099999998]},"properties":{"record_id":10,"name":"U.S. Coast Guard - Station Marathon","type":"Boat Ramp","operator":"","website":"","osm_id":"828588061","source":"OpenStreetMap","nearest_dive_m":6540.3}},{"type":"Feature","id":11,"geometry":{"type":"Point","coordinates":[-80.58632885,24.95354985]},"properties":{"record_id":11,"name":"U.S. Coast Guard Station - Isla Morada","type":"Boat Ramp","operator":"","website":"","osm_id":"828594906","source":"OpenStreetMap","nearest_dive_m":4302.3}},{"type":"Feature","id":17,"geometry":{"type":"Point","coordinates":[-80.3278747,25.537643]},"properties":{"record_id":17,"name":"Loggerhead Marina South Miami","type":"Marina","operator":"","website":"https://loggerheadmarina.com/","osm_id":"2841961046","source":"OpenStreetMap","nearest_dive_m":28106.7}},{"type":"Feature","id":18,"geometry":{"type":"Point","coordinates":[-80.5912068,24.9504129]},"properties":{"record_id":18,"name":"Snake Creek Marina","type":"Marina","operator":"","website":"https://snakecreekmarinakeys.com/","osm_id":"3058696699","source":"OpenStreetMap","nearest_dive_m":4600.0}},{"type":"Feature","id":19,"geometry":{"type":"Point","coordinates":[-80.6121534,24.9364501]},"properties":{"record_id":19,"name":"Whale Harbor Marina","type":"Marina","operator":"","website":"https://whaleharbormarina.com/","osm_id":"3058734957","source":"OpenStreetMap","nearest_dive_m":3625.9}},{"type":"Feature","id":20,"geometry":{"type":"Point","coordinates":[-80.6356235,24.9198675]},"properties":{"record_id":20,"name":"Coral Bay Marina","type":"Marina","operator":"","website":"https://coral-bay-marina.com/","osm_id":"3058734961","source":"OpenStreetMap","nearest_dive_m":2749.0}},{"type":"Feature","id":21,"geometry":{"type":"Point","coordinates":[-80.6907395,24.8827405]},"properties":{"record_id":21,"name":"Robbie's","type":"Marina","operator":"","website":"","osm_id":"3058878543","source":"OpenStreetMap","nearest_dive_m":2418.4}},{"type":"Feature","id":22,"geometry":{"type":"Point","coordinates":[-80.7988319,24.8378436]},"properties":{"record_id":22,"name":"Sea Bird Marina","type":"Marina","operator":"","website":"","osm_id":"3058878550","source":"OpenStreetMap","nearest_dive_m":12355.1}},{"type":"Feature","id":23,"geometry":{"type":"Point","coordinates":[-80.9158341,24.7747609]},"properties":{"record_id":23,"name":"Duck Key Marina","type":"Marina","operator":"","website":"https://marinaduckkey.com/","osm_id":"3059042376","source":"OpenStreetMap","nearest_dive_m":8235.8}},{"type":"Feature","id":24,"geometry":{"type":"Point","coordinates":[-80.9443875,24.7684309]},"properties":{"record_id":24,"name":"Grassy Key Marina","type":"Marina","operator":"","website":"","osm_id":"3060410048","source":"OpenStreetMap","nearest_dive_m":8827.5}},{"type":"Feature","id":25,"geometry":{"type":"Point","coordinates":[-81.0121951,24.7343614]},"properties":{"record_id":25,"name":"Driftwood Marina & Storage","type":"Marina","operator":"","website":"","osm_id":"3060410068","source":"OpenStreetMap","nearest_dive_m":5902.7}},{"type":"Feature","id":26,"geometry":{"type":"Point","coordinates":[-81.0304125,24.7299949]},"properties":{"record_id":26,"name":"Captain Hook's Marina & Dive Center","type":"Marina","operator":"","website":"https://captainhooks.com/","osm_id":"3060410108","source":"OpenStreetMap","nearest_dive_m":4635.3}},{"type":"Feature","id":27,"geometry":{"type":"Point","coordinates":[-81.1117446,24.7091585]},"properties":{"record_id":27,"name":"Sea Dog Charters Marina","type":"Marina","operator":"","website":"https://seadogcharters.net","osm_id":"3060499556","source":"OpenStreetMap","nearest_dive_m":7058.9}},{"type":"Feature","id":28,"geometry":{"type":"Point","coordinates":[-81.1115461,24.7085298]},"properties":{"record_id":28,"name":"Starfish Snorkel","type":"Marina","operator":"","website":"","osm_id":"3060499557","source":"OpenStreetMap","nearest_dive_m":7019.4}},{"type":"Feature","id":29,"geometry":{"type":"Point","coordinates":[-81.7355179,24.5743233]},"properties":{"record_id":29,"name":"Murray Marine","type":"Marina","operator":"","website":"","osm_id":"3060595241","source":"OpenStreetMap","nearest_dive_m":10562.6}},{"type":"Feature","id":30,"geometry":{"type":"Point","coordinates":[-81.747301,24.5709967]},"properties":{"record_id":30,"name":"Hurricane Hole Marina","type":"Marina","operator":"","website":"","osm_id":"3060595253","source":"OpenStreetMap","nearest_dive_m":10541.9}},{"type":"Feature","id":31,"geometry":{"type":"Point","coordinates":[-81.1103322,24.7085536]},"properties":{"record_id":31,"name":"Spirit Snorkeling","type":"Marina","operator":"","website":"","osm_id":"3067857966","source":"OpenStreetMap","nearest_dive_m":6902.6}},{"type":"Feature","id":32,"geometry":{"type":"Point","coordinates":[-81.727061,24.5639781]},"properties":{"record_id":32,"name":"Stock Island Yacht Club & Marina - Key West Harbour","type":"Marina","operator":"","website":"https://spottswoodmarinas.com/stock-island-yacht-club/","osm_id":"3067883937","source":"OpenStreetMap","nearest_dive_m":9273.6}},{"type":"Feature","id":33,"geometry":{"type":"Point","coordinates":[-80.7377656,24.8513324]},"properties":{"record_id":33,"name":"Scouts BSA Florida Sea Base","type":"Marina","operator":"National High Adventure Florida Sea Base","website":"","osm_id":"3358983501","source":"OpenStreetMap","nearest_dive_m":6004.7}},{"type":"Feature","id":34,"geometry":{"type":"Point","coordinates":[-81.5056317,24.6580266]},"properties":{"record_id":34,"name":"Cudjoe Gardens Marina And Dive Center","type":"Marina","operator":"","website":"","osm_id":"5104474553","source":"OpenStreetMap","nearest_dive_m":12335.1}},{"type":"Feature","id":35,"geometry":{"type":"Point","coordinates":[-81.1082023,24.7062565]},"properties":{"record_id":35,"name":"15th Street Marina Marathon (at Boot Key Harbor)","type":"Marina","operator":"","website":"https://www.bootkeymarina.com/","osm_id":"8922500078","source":"OpenStreetMap","nearest_dive_m":6624.6}},{"type":"Feature","id":36,"geometry":{"type":"Point","coordinates":[-80.9131337,24.7779182]},"properties":{"record_id":36,"name":"Hawks Cay Resort Marina","type":"Marina","operator":"","website":"https://www.hawkscay.com/amenities/hawks-cay-marina","osm_id":"8922857152","source":"OpenStreetMap","nearest_dive_m":8509.6}},{"type":"Feature","id":37,"geometry":{"type":"Point","coordinates":[-80.5306218,25.003477]},"properties":{"record_id":37,"name":"Tavernier Creek Marina","type":"Marina","operator":"","website":"https://taverniercreekmarina.com/","osm_id":"8926743865","source":"OpenStreetMap","nearest_dive_m":7816.1}},{"type":"Feature","id":38,"geometry":{"type":"Point","coordinates":[-80.5198429,25.0108477]},"properties":{"record_id":38,"name":"Mangrove Marina","type":"Marina","operator":"","website":"https://mangrovemarina.com/","osm_id":"8926769938","source":"OpenStreetMap","nearest_dive_m":8829.9}},{"type":"Feature","id":39,"geometry":{"type":"Point","coordinates":[-80.4406857,25.0876661]},"properties":{"record_id":39,"name":"Pilot House Marina","type":"Marina","operator":"","website":"https://www.pilothousemarina.com/","osm_id":"8926810966","source":"OpenStreetMap","nearest_dive_m":8068.7}},{"type":"Feature","id":40,"geometry":{"type":"Point","coordinates":[-81.0845031,24.7169478]},"properties":{"record_id":40,"name":"Banana Bay Resort & Marina","type":"Marina","operator":"","website":"https://www.bhotelsandresorts.com/banana-bay/","osm_id":"8928599380","source":"OpenStreetMap","nearest_dive_m":4957.7}},{"type":"Feature","id":41,"geometry":{"type":"Point","coordinates":[-81.0908627,24.7159004]},"properties":{"record_id":41,"name":"Marlin Bay Resort & Marina","type":"Marina","operator":"","website":"https://www.marlinbay.com/","osm_id":"8928610265","source":"OpenStreetMap","nearest_dive_m":5427.3}},{"type":"Feature","id":42,"geometry":{"type":"Point","coordinates":[-81.0829727,24.7169137]},"properties":{"record_id":42,"name":"Blackfin Resort and Marina","type":"Marina","operator":"","website":"https://www.blackfinresort.com/","osm_id":"8928642214","source":"OpenStreetMap","nearest_dive_m":4831.7}},{"type":"Feature","id":43,"geometry":{"type":"Point","coordinates":[-80.7377951,24.8491927]},"properties":{"record_id":43,"name":"Caloosa Cove Resort & Marina","type":"Marina","operator":"","website":"https://caloosacove.com/","osm_id":"8928678682","source":"OpenStreetMap","nearest_dive_m":6064.5}},{"type":"Feature","id":44,"geometry":{"type":"Point","coordinates":[-81.73745931640136,24.56432705]},"properties":{"record_id":44,"name":"Oasis Marina","type":"Marina","operator":"Oasis Marinas","website":"https://www.oasismarinas.com/","osm_id":"15741992","source":"OpenStreetMap","nearest_dive_m":9536.6}},{"type":"Feature","id":45,"geometry":{"type":"Point","coordinates":[-81.80171222028488,24.5619623]},"properties":{"record_id":45,"name":"Key West Bight Marina","type":"Marina","operator":"City of Key West","website":"https://www.keywestbightmarina.com/","osm_id":"83579780","source":"OpenStreetMap","nearest_dive_m":5594.3}},{"type":"Feature","id":46,"geometry":{"type":"Point","coordinates":[-80.39869617651054,25.14296835]},"properties":{"record_id":46,"name":"Marina Club Key Largo at Blackwater Sound","type":"Marina","operator":"","website":"https://marinaclubkeylargo.com/","osm_id":"217327683","source":"OpenStreetMap","nearest_dive_m":10052.8}},{"type":"Feature","id":47,"geometry":{"type":"Point","coordinates":[-81.27827209679725,24.6570318]},"properties":{"record_id":47,"name":"Bahia Honda Marina","type":"Marina","operator":"","website":"","osm_id":"323507973","source":"OpenStreetMap","nearest_dive_m":12475.3}},{"type":"Feature","id":49,"geometry":{"type":"Point","coordinates":[-80.28029459356772,25.312884349999997]},"properties":{"record_id":49,"name":"Ocean Reef Club Marina","type":"Marina","operator":"","website":"https://www.oceanreef.com/","osm_id":"362793636","source":"OpenStreetMap","nearest_dive_m":7225.1}},{"type":"Feature","id":51,"geometry":{"type":"Point","coordinates":[-80.298085691744,25.31099185]},"properties":{"record_id":51,"name":"Key Largo Anglers Club","type":"Marina","operator":"","website":"https://klac.org/","osm_id":"362883494","source":"OpenStreetMap","nearest_dive_m":8814.9}},{"type":"Feature","id":52,"geometry":{"type":"Point","coordinates":[-80.64016435130893,24.915540749999998]},"properties":{"record_id":52,"name":"Bayside Marina","type":"Marina","operator":"World Wide Sportsman","website":"https://stores.basspro.com/us/fl/islamorada/81576-overseas-highway-22264191.html","osm_id":"396013568","source":"OpenStreetMap","nearest_dive_m":2866.3}},{"type":"Feature","id":53,"geometry":{"type":"Point","coordinates":[-81.72982868967028,24.5630842]},"properties":{"record_id":53,"name":"Oceans Edge Resort & Marina Key West","type":"Marina","operator":"","website":"https://www.oceansedgekeywest.com/","osm_id":"415309284","source":"OpenStreetMap","nearest_dive_m":9225.4}},{"type":"Feature","id":54,"geometry":{"type":"Point","coordinates":[-81.34843143510028,24.6972265]},"properties":{"record_id":54,"name":"Old Wooden Bridge Guest Cottages & Marina LLC","type":"Marina","operator":"","website":"","osm_id":"493483962","source":"OpenStreetMap","nearest_dive_m":10085.8}},{"type":"Feature","id":55,"geometry":{"type":"Point","coordinates":[-81.24862526078147,24.67259535]},"properties":{"record_id":55,"name":"Sunshine Key Marina","type":"Marina","operator":"","website":"http://www.rvonthego.com/florida/sunshine-key-rv-resort-marina/?utm_source=yext&utm_medium=directory&utm_campaign=Yext%20Directory%20Listing","osm_id":"494903704","source":"OpenStreetMap","nearest_dive_m":14935.1}},{"type":"Feature","id":56,"geometry":{"type":"Point","coordinates":[-81.09141912909288,24.709733]},"properties":{"record_id":56,"name":"Boot Key Harbor Marathon City Marina","type":"Marina","operator":"","website":"","osm_id":"589379803","source":"OpenStreetMap","nearest_dive_m":5155.8}},{"type":"Feature","id":57,"geometry":{"type":"Point","coordinates":[-80.3297206019983,25.5401729]},"properties":{"record_id":57,"name":"Black Point Marina","type":"Marina","operator":"","website":"","osm_id":"607410193","source":"OpenStreetMap","nearest_dive_m":28441.0}},{"type":"Feature","id":59,"geometry":{"type":"Point","coordinates":[-81.1063464919419,24.71006995]},"properties":{"record_id":59,"name":"Coast Guard Basin","type":"Marina","operator":"USCG","website":"","osm_id":"828589972","source":"OpenStreetMap","nearest_dive_m":6571.7}},{"type":"Feature","id":61,"geometry":{"type":"Point","coordinates":[-81.80364847907984,24.56240195]},"properties":{"record_id":61,"name":"Galleon Marina","type":"Marina","operator":"","website":"https://www.galleonmarinakeywest.com/","osm_id":"960077345","source":"OpenStreetMap","nearest_dive_m":5398.0}},{"type":"Feature","id":62,"geometry":{"type":"Point","coordinates":[-81.80291806081846,24.56174025]},"properties":{"record_id":62,"name":"A & B Marina","type":"Marina","operator":"","website":"https://www.aandbmarina.com/","osm_id":"960082399","source":"OpenStreetMap","nearest_dive_m":5472.3}},{"type":"Feature","id":63,"geometry":{"type":"Point","coordinates":[-81.80003746621658,24.562698949999998]},"properties":{"record_id":63,"name":"Conch Harbor Marina","type":"Marina","operator":"","website":"https://conchharbormarina.com/","osm_id":"960095386","source":"OpenStreetMap","nearest_dive_m":5764.0}},{"type":"Feature","id":64,"geometry":{"type":"Point","coordinates":[-81.10460507687125,24.71076085]},"properties":{"record_id":64,"name":"Faro Blanco Resort & Yacht Club","type":"Marina","operator":"","website":"https://www.faroblancoresort.com/","osm_id":"960749909","source":"OpenStreetMap","nearest_dive_m":6432.3}},{"type":"Feature","id":65,"geometry":{"type":"Point","coordinates":[-81.75061362447082,24.57893895]},"properties":{"record_id":65,"name":"Sunset Marina","type":"Marina","operator":"","website":"http://www.sunsetmarinakw.com/","osm_id":"961607051","source":"OpenStreetMap","nearest_dive_m":10926.9}},{"type":"Feature","id":66,"geometry":{"type":"Point","coordinates":[-80.46163863610339,25.072162900000002]},"properties":{"record_id":66,"name":"Mariner's Club Key Largo Marina","type":"Marina","operator":"","website":"https://www.keyscaribbean.com/resort/mariners-club-resort/marina/","osm_id":"961739931","source":"OpenStreetMap","nearest_dive_m":8293.9}},{"type":"Feature","id":67,"geometry":{"type":"Point","coordinates":[-81.11207238757576,24.70503425]},"properties":{"record_id":67,"name":"Marathon Marina & Boat Yard","type":"Marina","operator":"","website":"https://marathonmarinaresort.com","osm_id":"962279125","source":"OpenStreetMap","nearest_dive_m":6970.2}},{"type":"Feature","id":68,"geometry":{"type":"Point","coordinates":[-81.0301701458369,24.7298385]},"properties":{"record_id":68,"name":"Captain Hook's Marina and Dive Center","type":"Marina","operator":"","website":"https://captainhooks.com/","osm_id":"962640922","source":"OpenStreetMap","nearest_dive_m":4626.8}},{"type":"Feature","id":69,"geometry":{"type":"Point","coordinates":[-81.72550188169345,24.56274325]},"properties":{"record_id":69,"name":"Stock Island Yacht Club & Marina","type":"Marina","operator":"","website":"https://spottswoodmarinas.com/stock-island-yacht-club/","osm_id":"963243452","source":"OpenStreetMap","nearest_dive_m":9114.3}},{"type":"Feature","id":70,"geometry":{"type":"Point","coordinates":[-80.65769879078638,24.89763595]},"properties":{"record_id":70,"name":"Bud n'Mary's Marina","type":"Marina","operator":"","website":"https://www.budnmarys.com/","osm_id":"965364676","source":"OpenStreetMap","nearest_dive_m":4380.4}},{"type":"Feature","id":71,"geometry":{"type":"Point","coordinates":[-80.56873318548995,24.9648616]},"properties":{"record_id":71,"name":"Plantation Yacht Harbor Marina","type":"Marina","operator":"","website":"https://www.islamorada.fl.us/","osm_id":"965369753","source":"OpenStreetMap","nearest_dive_m":3871.7}},{"type":"Feature","id":72,"geometry":{"type":"Point","coordinates":[-80.58554492337844,24.9536011]},"properties":{"record_id":72,"name":"IslaMarina","type":"Marina","operator":"","website":"https://islamarinakeys.com/","osm_id":"965374081","source":"OpenStreetMap","nearest_dive_m":4235.8}},{"type":"Feature","id":73,"geometry":{"type":"Point","coordinates":[-80.63666195,24.918344949999998]},"properties":{"record_id":73,"name":"Caribee Boat Sales & Marina","type":"Marina","operator":"","website":"https://www.caribeeboats.com/","osm_id":"965392909","source":"OpenStreetMap","nearest_dive_m":2727.0}},{"type":"Feature","id":80,"geometry":{"type":"Point","coordinates":[-80.6494894,24.9078358]},"properties":{"record_id":80,"name":"La Siesta Resort Bayside Marina (Call Ahead to Confirm Availability)","type":"Boat Ramp","operator":"","website":"","osm_id":"99069536","source":"OpenStreetMap","nearest_dive_m":3525.4}},{"type":"Feature","id":85,"geometry":{"type":"Point","coordinates":[-81.5653948,24.6470518]},"properties":{"record_id":85,"name":"Sugarloaf Marina","type":"Boat Ramp","operator":"","website":"","osm_id":"935135632","source":"OpenStreetMap","nearest_dive_m":16679.8}},{"type":"Feature","id":91,"geometry":{"type":"Point","coordinates":[-81.745729,24.5843125]},"properties":{"record_id":91,"name":"Boat Dock","type":"Boat Ramp","operator":"","website":"","osm_id":"1316135665","source":"OpenStreetMap","nearest_dive_m":11525.8}},{"type":"Feature","id":92,"geometry":{"type":"Point","coordinates":[-80.5339358,25.0032316]},"properties":{"record_id":92,"name":"Plantation Tropical Preserve Paddle Craft Launch","type":"Boat Ramp","operator":"","website":"","osm_id":"2421505631","source":"OpenStreetMap","nearest_dive_m":7717.0}},{"type":"Feature","id":93,"geometry":{"type":"Point","coordinates":[-81.2781296,24.6567211]},"properties":{"record_id":93,"name":"Boat Ramp","type":"Boat Ramp","operator":"","website":"","osm_id":"2503449584","source":"OpenStreetMap","nearest_dive_m":12476.2}},{"type":"Feature","id":94,"geometry":{"type":"Point","coordinates":[-80.3970115,25.1454329]},"properties":{"record_id":94,"name":"Caribbean Club Pay Ramp","type":"Boat Ramp","operator":"","website":"","osm_id":"3056801942","source":"OpenStreetMap","nearest_dive_m":9995.7}},{"type":"Feature","id":95,"geometry":{"type":"Point","coordinates":[-80.4070163,25.1242905]},"properties":{"record_id":95,"name":"John Pennekamp Coral Reef State Park","type":"Boat Ramp","operator":"","website":"","osm_id":"3056873411","source":"OpenStreetMap","nearest_dive_m":9830.1}},{"type":"Feature","id":96,"geometry":{"type":"Point","coordinates":[-80.5198804,25.0104575]},"properties":{"record_id":96,"name":"Tavernier - Jo-Jean Way Boat Ramp","type":"Boat Ramp","operator":"","website":"","osm_id":"3056873414","source":"OpenStreetMap","nearest_dive_m":8802.0}},{"type":"Feature","id":97,"geometry":{"type":"Point","coordinates":[-80.4893446,25.0498359]},"properties":{"record_id":97,"name":"Sunset Point Park Public Boat Ramp","type":"Boat Ramp","operator":"","website":"","osm_id":"3056873417","source":"OpenStreetMap","nearest_dive_m":9767.8}},{"type":"Feature","id":98,"geometry":{"type":"Point","coordinates":[-80.5688798,24.9650463]},"properties":{"record_id":98,"name":"Islamorada Founders Park and Public Boat Ramp","type":"Boat Ramp","operator":"","website":"","osm_id":"3058696696","source":"OpenStreetMap","nearest_dive_m":3896.9}},{"type":"Feature","id":99,"geometry":{"type":"Point","coordinates":[-80.569883,24.9543077]},"properties":{"record_id":99,"name":"Islamorada - East Ridge Road Public Boat Ramp (No Parking - Small Boats Only)","type":"Boat Ramp","operator":"","website":"","osm_id":"3058696698","source":"OpenStreetMap","nearest_dive_m":3013.5}},{"type":"Feature","id":102,"geometry":{"type":"Point","coordinates":[-80.8890994,24.7902857]},"properties":{"record_id":102,"name":"Bay View Inn Resort, Marina and General Store","type":"Boat Ramp","operator":"","website":"","osm_id":"3059042375","source":"OpenStreetMap","nearest_dive_m":9686.4}},{"type":"Feature","id":104,"geometry":{"type":"Point","coordinates":[-80.9447978,24.7682287]},"properties":{"record_id":104,"name":"Silver Palm Marine","type":"Boat Ramp","operator":"","website":"","osm_id":"3060410051","source":"OpenStreetMap","nearest_dive_m":8832.9}},{"type":"Feature","id":105,"geometry":{"type":"Point","coordinates":[-81.0822533,24.712203]},"properties":{"record_id":105,"name":"Harbour Point Marine","type":"Boat Ramp","operator":"","website":"","osm_id":"3060499385","source":"OpenStreetMap","nearest_dive_m":4471.6}},{"type":"Feature","id":106,"geometry":{"type":"Point","coordinates":[-81.0047229,24.7311248]},"properties":{"record_id":106,"name":"Coco Plum Yacht Club Pay Ramp","type":"Boat Ramp","operator":"","website":"","osm_id":"3060499572","source":"OpenStreetMap","nearest_dive_m":6089.4}},{"type":"Feature","id":107,"geometry":{"type":"Point","coordinates":[-81.0181894,24.733389]},"properties":{"record_id":107,"name":"Crawl Key (Mile Marker 54) Public Boat Ramp","type":"Boat Ramp","operator":"","website":"","osm_id":"3060499583","source":"OpenStreetMap","nearest_dive_m":5489.4}},{"type":"Feature","id":108,"geometry":{"type":"Point","coordinates":[-81.0272007,24.7317096]},"properties":{"record_id":108,"name":"Royal Hawaiian Motel-Botel","type":"Boat Ramp","operator":"","website":"","osm_id":"3060499585","source":"OpenStreetMap","nearest_dive_m":4925.6}},{"type":"Feature","id":109,"geometry":{"type":"Point","coordinates":[-81.0592965,24.7248257]},"properties":{"record_id":109,"name":"North Marathon Shores Public Boat Ramp","type":"Boat Ramp","operator":"","website":"","osm_id":"3060499593","source":"OpenStreetMap","nearest_dive_m":4079.7}},{"type":"Feature","id":110,"geometry":{"type":"Point","coordinates":[-81.0958984,24.7136157]},"properties":{"record_id":110,"name":"City of Marathon 33rd Street Boat Ramp","type":"Boat Ramp","operator":"","website":"","osm_id":"3060499594","source":"OpenStreetMap","nearest_dive_m":5750.5}},{"type":"Feature","id":112,"geometry":{"type":"Point","coordinates":[-81.2295147,24.6824948]},"properties":{"record_id":112,"name":"Little Duck Key Wayside Park Public Boat Ramp","type":"Boat Ramp","operator":"","website":"","osm_id":"3060591601","source":"OpenStreetMap","nearest_dive_m":13610.4}},{"type":"Feature","id":115,"geometry":{"type":"Point","coordinates":[-81.3750928,24.7192595]},"properties":{"record_id":115,"name":"Koehn Avenue Public Boat Ramp","type":"Boat Ramp","operator":"","website":"","osm_id":"3060591616","source":"OpenStreetMap","nearest_dive_m":11606.3}},{"type":"Feature","id":116,"geometry":{"type":"Point","coordinates":[-81.3779443,24.6951739]},"properties":{"record_id":116,"name":"Eden Pines Neighborhood Boat Ramp","type":"Boat Ramp","operator":"","website":"","osm_id":"3060591619","source":"OpenStreetMap","nearest_dive_m":8926.9}},{"type":"Feature","id":117,"geometry":{"type":"Point","coordinates":[-81.3873149,24.6650899]},"properties":{"record_id":117,"name":"Dolphin Marina and Cottages","type":"Boat Ramp","operator":"","website":"","osm_id":"3060591624","source":"OpenStreetMap","nearest_dive_m":5494.3}},{"type":"Feature","id":118,"geometry":{"type":"Point","coordinates":[-81.3941398,24.675523]},"properties":{"record_id":118,"name":"Little Torch Key Public Boat Ramp","type":"Boat Ramp","operator":"","website":"","osm_id":"3060591628","source":"OpenStreetMap","nearest_dive_m":6621.8}},{"type":"Feature","id":119,"geometry":{"type":"Point","coordinates":[-81.6471521,24.6012136]},"properties":{"record_id":119,"name":"Shark Key Wayside Park Public Boat Ramp (Mile Marker 11)","type":"Boat Ramp","operator":"","website":"","osm_id":"3060595236","source":"OpenStreetMap","nearest_dive_m":11282.1}},{"type":"Feature","id":120,"geometry":{"type":"Point","coordinates":[-81.7292808,24.5639509]},"properties":{"record_id":120,"name":"Oceanside Marina of Stock Island","type":"Boat Ramp","operator":"","website":"","osm_id":"3060595244","source":"OpenStreetMap","nearest_dive_m":9309.3}},{"type":"Feature","id":121,"geometry":{"type":"Point","coordinates":[-81.7847026,24.5599185]},"properties":{"record_id":121,"name":"Key West City Marina at Garrison Bight","type":"Boat Ramp","operator":"","website":"","osm_id":"3060595255","source":"OpenStreetMap","nearest_dive_m":7322.1}},{"type":"Feature","id":130,"geometry":{"type":"Point","coordinates":[-80.4935997,25.0485641]},"properties":{"record_id":130,"name":"Canoe Launch","type":"Boat Ramp","operator":"","website":"","osm_id":"4979492662","source":"OpenStreetMap","nearest_dive_m":10150.4}},{"type":"Feature","id":131,"geometry":{"type":"Point","coordinates":[-80.4935229,25.0481981]},"properties":{"record_id":131,"name":"Boat launch","type":"Boat Ramp","operator":"","website":"","osm_id":"4979606043","source":"OpenStreetMap","nearest_dive_m":10133.6}},{"type":"Feature","id":139,"geometry":{"type":"Point","coordinates":[-81.5706633,24.6034575]},"properties":{"record_id":139,"name":"Sammy Creek Landing Ramp","type":"Boat Ramp","operator":"","website":"","osm_id":"7159536457","source":"OpenStreetMap","nearest_dive_m":12911.2}}]}
