{"type":"FeatureCollection","features":[{"type":"Feature","id":2,"geometry":{"type":"Point","coordinates":[-80.3792534,25.1662349]},"properties":{"record_id":2,"name":"Silent World Dive Center","category":"Scuba Shop","phone":"+1 305-451-3252","website":"https://silentworld.com/","address":"47 Garden Cove Drive Key Largo","osm_id":"3056801947","source":"OpenStreetMap","nearest_dive_m":9062.0}},{"type":"Feature","id":3,"geometry":{"type":"Point","coordinates":[-80.3780572,25.167545]},"properties":{"record_id":3,"name":"Scuba Quest Outlet","category":"Scuba Shop","phone":"+1 305-451-1408","website":"http://scubaquestusa.com/locations/key-largo-scuba-quest/","address":"106010 Overseas Highway Key Largo","osm_id":"3056801952","source":"OpenStreetMap","nearest_dive_m":8998.0}},{"type":"Feature","id":4,"geometry":{"type":"Point","coordinates":[-80.4604988,25.0734071]},"properties":{"record_id":4,"name":"Dive In Watersports","category":"Scuba Shop","phone":"","website":"","address":"","osm_id":"3056873352","source":"OpenStreetMap","nearest_dive_m":8285.9}},{"type":"Feature","id":5,"geometry":{"type":"Point","coordinates":[-80.5306201,25.0029487]},"properties":{"record_id":5,"name":"Conch Republic Divers","category":"Scuba Shop","phone":"","website":"","address":"90800 Overseas Highway Tavernier","osm_id":"3058696690","source":"OpenStreetMap","nearest_dive_m":7759.3}},{"type":"Feature","id":6,"geometry":{"type":"Point","coordinates":[-80.5355284,25.0014765]},"properties":{"record_id":6,"name":"Florida Keys Dive Center","category":"Scuba Shop","phone":"+1 305-852-4599","website":"https://www.floridakeysdivectr.com/","address":"90451 Overseas Highway Tavernier","osm_id":"3058696691","source":"OpenStreetMap","nearest_dive_m":7495.8}},{"type":"Feature","id":7,"geometry":{"type":"Point","coordinates":[-81.0304125,24.7299949]},"properties":{"record_id":7,"name":"Captain Hook's Marina & Dive Center","category":"Scuba Shop","phone":"","website":"https://captainhooks.com/","address":"11833 Overseas Highway Marathon","osm_id":"3060410108","source":"OpenStreetMap","nearest_dive_m":4635.3}},{"type":"Feature","id":8,"geometry":{"type":"Point","coordinates":[-81.4069501,24.6617955]},"properties":{"record_id":8,"name":"Looe Key Reef Resort & Dive Center","category":"Scuba Shop","phone":"+1-305-872-2215","website":"http://www.looekeyreefresort.com/","address":"27340 Overseas Highway Ramrod","osm_id":"3060591629","source":"OpenStreetMap","nearest_dive_m":5294.2}},{"type":"Feature","id":9,"geometry":{"type":"Point","coordinates":[-81.0832088,24.7145777]},"properties":{"record_id":9,"name":"Tilden's Scuba Center","category":"Scuba Shop","phone":"","website":"","address":"4650 Overseas Highway Marathon","osm_id":"3067857961","source":"OpenStreetMap","nearest_dive_m":4698.3}},{"type":"Feature","id":10,"geometry":{"type":"Point","coordinates":[-81.8042341,24.5599642]},"properties":{"record_id":10,"name":"Divers Direct","category":"Scuba Shop","phone":"+1-305-293-5122","website":"https://www.diversdirect.com/","address":"","osm_id":"4860845201","source":"OpenStreetMap","nearest_dive_m":5344.9}},{"type":"Feature","id":11,"geometry":{"type":"Point","coordinates":[-80.4454123,25.0892342]},"properties":{"record_id":11,"name":"Scuba Tech","category":"Scuba Shop","phone":"","website":"","address":"","osm_id":"14054335138","source":"OpenStreetMap","nearest_dive_m":8485.7}},{"type":"Feature","id":15,"geometry":{"type":"Point","coordinates":[-81.2784178,24.6559979]},"properties":{"record_id":15,"name":"Dive Shop","category":"Dive Center / Service","phone":"","website":"","address":"","osm_id":"4862212258","source":"OpenStreetMap","nearest_dive_m":12420.1}},{"type":"Feature","id":16,"geometry":{"type":"Point","coordinates":[-81.5056317,24.6580266]},"properties":{"record_id":16,"name":"Cudjoe Gardens Marina And Dive Center","category":"Dive Center / Service","phone":"","website":"","address":"","osm_id":"5104474553","source":"OpenStreetMap","nearest_dive_m":12335.1}},{"type":"Feature","id":17,"geometry":{"type":"Point","coordinates":[-81.76724919340708,24.5687931]},"properties":{"record_id":17,"name":"Captain Hook","category":"Scuba Shop","phone":"","website":"","address":"3128 North Roosevelt Boulevard Key West","osm_id":"302400638","source":"OpenStreetMap","nearest_dive_m":9113.8}},{"type":"Feature","id":18,"geometry":{"type":"Point","coordinates":[-81.0218978,24.731636100000003]},"properties":{"record_id":18,"name":"Abyss Dive Center","category":"Scuba Shop","phone":"","website":"","address":"12565 Overseas Highway Marathon","osm_id":"303728688","source":"OpenStreetMap","nearest_dive_m":5139.8}},{"type":"Feature","id":19,"geometry":{"type":"Point","coordinates":[-80.40723831676695,25.12407365]},"properties":{"record_id":19,"name":"Dive Shop","category":"Scuba Shop","phone":"","website":"","address":"","osm_id":"316615465","source":"OpenStreetMap","nearest_dive_m":9816.1}},{"type":"Feature","id":20,"geometry":{"type":"Point","coordinates":[-81.79998795,24.5615168]},"properties":{"record_id":20,"name":"Lost Reef Adventures","category":"Scuba Shop","phone":"+1-305-296-9737","website":"https://lostreefadventures.com","address":"261 Margaret Street Key West","osm_id":"356861877","source":"OpenStreetMap","nearest_dive_m":5769.5}},{"type":"Feature","id":21,"geometry":{"type":"Point","coordinates":[-80.40967330000001,25.129839099999998]},"properties":{"record_id":21,"name":"Sundiver Snorkel Tours","category":"Scuba Shop","phone":"+1 305 451 2220","website":"http://www.snorkelingisfun.com/","address":"102840 Overseas Highway Key Largo","osm_id":"376894034","source":"OpenStreetMap","nearest_dive_m":10500.3}},{"type":"Feature","id":22,"geometry":{"type":"Point","coordinates":[-80.6582261469892,24.898271100000002]},"properties":{"record_id":22,"name":"Key Dives","category":"Scuba Shop","phone":"+1-305-664-2211","website":"https://www.keydives.com/","address":"79851 Overseas Highway","osm_id":"390648879","source":"OpenStreetMap","nearest_dive_m":4422.7}},{"type":"Feature","id":23,"geometry":{"type":"Point","coordinates":[-80.40688609600232,25.1333173]},"properties":{"record_id":23,"name":"Sail Fish Scuba","category":"Scuba Shop","phone":"+1-305-453-3446","website":"https://www.sailfishscuba.com/","address":"103100 Overseas Highway Key Largo","osm_id":"925497370","source":"OpenStreetMap","nearest_dive_m":10525.8}}]}
