{"type":"FeatureCollection","features":[{"type":"Feature","id":1,"geometry":{"type":"Point","coordinates":[-80.8946,24.7029833333333]},"properties":{"site_name":"Adelaide Baker (Shipwreck Trail)","mooring_count":1,"site_type":"Wreck","depth_m":28.0,"depth_source":"Demo dataset","data_quality":"DEMO","min_depth_m":23.0,"max_depth_m":28.0,"access_type":"Boat","depth_class":"Deep <=30m","data_origin":"demo","description":"Wreck dive site with boat access. Depth values are demonstration attributes created for the WebGIS prototype."}},{"type":"Feature","id":2,"geometry":{"type":"Point","coordinates":[-81.46155416666664,24.530175]},"properties":{"site_name":"Adolphus Busch Wreck","mooring_count":4,"site_type":"Wreck","depth_m":30.5,"depth_source":"FWC Artificial Reef Database","data_quality":"A","min_depth_m":21.5,"max_depth_m":30.5,"access_type":"Boat","depth_class":"Very Deep <=40m","data_origin":"official","description":"Wreck dive site with boat access. Maximum depth is based on available official source data."}},{"type":"Feature","id":3,"geometry":{"type":"Point","coordinates":[-80.62242619047619,24.844802380952387]},"properties":{"site_name":"Alligator Reef","mooring_count":7,"site_type":"Reef","depth_m":26.0,"depth_source":"Demo dataset","data_quality":"DEMO","min_depth_m":17.0,"max_depth_m":26.0,"access_type":"Boat","depth_class":"Deep <=30m","data_origin":"demo","description":"Reef dive site with boat access. Depth values are demonstration attributes created for the WebGIS prototype."}},{"type":"Feature","id":4,"geometry":{"type":"Point","coordinates":[-80.61805,24.8510833333333]},"properties":{"site_name":"Alligator Wreck","mooring_count":1,"site_type":"Wreck","depth_m":36.0,"depth_source":"Demo dataset","data_quality":"DEMO","min_depth_m":27.0,"max_depth_m":36.0,"access_type":"Boat","depth_class":"Very Deep <=40m","data_origin":"demo","description":"Wreck dive site with boat access. Depth values are demonstration attributes created for the WebGIS prototype."}},{"type":"Feature","id":5,"geometry":{"type":"Point","coordinates":[-81.9818666666667,24.6232833333333]},"properties":{"site_name":"Amesbury Wreck (Shipwreck Trail)","mooring_count":1,"site_type":"Wreck","depth_m":31.0,"depth_source":"Demo dataset","data_quality":"DEMO","min_depth_m":21.0,"max_depth_m":31.0,"access_type":"Boat","depth_class":"Very Deep <=40m","data_origin":"demo","description":"Wreck dive site with boat access. Depth values are demonstration attributes created for the WebGIS prototype."}},{"type":"Feature","id":6,"geometry":{"type":"Point","coordinates":[-81.88116666666666,24.5595888888889]},"properties":{"site_name":"Archer Key","mooring_count":3,"site_type":"Reef","depth_m":10.0,"depth_source":"Demo dataset","data_quality":"DEMO","min_depth_m":3.0,"max_depth_m":10.0,"access_type":"Boat","depth_class":"Shallow <=12m","data_origin":"demo","description":"Reef dive site with boat access. Depth values are demonstration attributes created for the WebGIS prototype."}},{"type":"Feature","id":7,"geometry":{"type":"Point","coordinates":[-80.33255555555557,25.052472222222217]},"properties":{"site_name":"Benwood Wreck (Shipwreck Trail)","mooring_count":6,"site_type":"Wreck","depth_m":32.0,"depth_source":"Demo dataset","data_quality":"DEMO","min_depth_m":24.0,"max_depth_m":32.0,"access_type":"Boat","depth_class":"Very Deep <=40m","data_origin":"demo","description":"Wreck dive site with boat access. Depth values are demonstration attributes created for the WebGIS prototype."}},{"type":"Feature","id":8,"geometry":{"type":"Point","coordinates":[-80.3796,24.99515]},"properties":{"site_name":"Bibb Wreck","mooring_count":1,"site_type":"Wreck","depth_m":39.6,"depth_source":"FWC Artificial Reef Database","data_quality":"A","min_depth_m":31.6,"max_depth_m":39.6,"access_type":"Boat","depth_class":"Very Deep <=40m","data_origin":"official","description":"Wreck dive site with boat access. Maximum depth is based on available official source data."}},{"type":"Feature","id":9,"geometry":{"type":"Point","coordinates":[-80.21115000000002,25.22211153846154]},"properties":{"site_name":"Carysfort Reef","mooring_count":13,"site_type":"Reef","depth_m":23.0,"depth_source":"Demo dataset","data_quality":"DEMO","min_depth_m":16.0,"max_depth_m":23.0,"access_type":"Boat","depth_class":"Deep <=30m","data_origin":"demo","description":"Reef dive site with boat access. Depth values are demonstration attributes created for the WebGIS prototype."}},{"type":"Feature","id":10,"geometry":{"type":"Point","coordinates":[-80.22015624999999,25.20917916666666]},"properties":{"site_name":"Carysfort Reef South","mooring_count":8,"site_type":"Reef","depth_m":14.0,"depth_source":"Demo dataset","data_quality":"DEMO","min_depth_m":9.0,"max_depth_m":14.0,"access_type":"Boat","depth_class":"Moderate <=18m","data_origin":"demo","description":"Reef dive site with boat access. Depth values are demonstration attributes created for the WebGIS prototype."}},{"type":"Feature","id":11,"geometry":{"type":"Point","coordinates":[-80.1964666666667,25.2479166666667]},"properties":{"site_name":"Carysfort Shoal N1","mooring_count":1,"site_type":"Reef","depth_m":23.0,"depth_source":"Demo dataset","data_quality":"DEMO","min_depth_m":17.0,"max_depth_m":23.0,"access_type":"Boat","depth_class":"Deep <=30m","data_origin":"demo","description":"Reef dive site with boat access. Depth values are demonstration attributes created for the WebGIS prototype."}},{"type":"Feature","id":12,"geometry":{"type":"Point","coordinates":[-80.1962333333333,25.2487666666667]},"properties":{"site_name":"Carysfort Shoal N2","mooring_count":1,"site_type":"Reef","depth_m":8.0,"depth_source":"Demo dataset","data_quality":"DEMO","min_depth_m":3.0,"max_depth_m":8.0,"access_type":"Boat","depth_class":"Shallow <=12m","data_origin":"demo","description":"Reef dive site with boat access. Depth values are demonstration attributes created for the WebGIS prototype."}},{"type":"Feature","id":13,"geometry":{"type":"Point","coordinates":[-80.2067333333333,25.26145]},"properties":{"site_name":"Carysfort Shoal N3","mooring_count":1,"site_type":"Reef","depth_m":21.0,"depth_source":"Demo dataset","data_quality":"DEMO","min_depth_m":17.0,"max_depth_m":21.0,"access_type":"Boat","depth_class":"Deep <=30m","data_origin":"demo","description":"Reef dive site with boat access. Depth values are demonstration attributes created for the WebGIS prototype."}},{"type":"Feature","id":14,"geometry":{"type":"Point","coordinates":[-80.20645,25.2620666666667]},"properties":{"site_name":"Carysfort Shoal N4","mooring_count":1,"site_type":"Reef","depth_m":15.0,"depth_source":"Demo dataset","data_quality":"DEMO","min_depth_m":7.0,"max_depth_m":15.0,"access_type":"Boat","depth_class":"Moderate <=18m","data_origin":"demo","description":"Reef dive site with boat access. Depth values are demonstration attributes created for the WebGIS prototype."}},{"type":"Feature","id":15,"geometry":{"type":"Point","coordinates":[-80.19805833333331,25.2333]},"properties":{"site_name":"Carysfort Trench","mooring_count":2,"site_type":"Wall","depth_m":32.0,"depth_source":"Demo dataset","data_quality":"DEMO","min_depth_m":24.0,"max_depth_m":32.0,"access_type":"Boat","depth_class":"Very Deep <=40m","data_origin":"demo","description":"Wall dive site with boat access. Depth values are demonstration attributes created for the WebGIS prototype."}},{"type":"Feature","id":16,"geometry":{"type":"Point","coordinates":[-81.76717500000001,24.460958333333302]},"properties":{"site_name":"Cayman Salvor Wreck","mooring_count":2,"site_type":"Wreck","depth_m":15.0,"depth_source":"Demo dataset","data_quality":"DEMO","min_depth_m":5.0,"max_depth_m":15.0,"access_type":"Boat","depth_class":"Moderate <=18m","data_origin":"demo","description":"Wreck dive site with boat access. Depth values are demonstration attributes created for the WebGIS prototype."}},{"type":"Feature","id":17,"geometry":{"type":"Point","coordinates":[-80.61487407407407,24.9038111111111]},"properties":{"site_name":"Cheeca Rocks","mooring_count":9,"site_type":"Reef","depth_m":20.0,"depth_source":"Demo dataset","data_quality":"DEMO","min_depth_m":15.0,"max_depth_m":20.0,"access_type":"Boat","depth_class":"Deep <=30m","data_origin":"demo","description":"Reef dive site with boat access. Depth values are demonstration attributes created for the WebGIS prototype."}},{"type":"Feature","id":18,"geometry":{"type":"Point","coordinates":[-80.96357708333333,24.685612499999987]},"properties":{"site_name":"Coffins Patch","mooring_count":8,"site_type":"Reef","depth_m":11.0,"depth_source":"Demo dataset","data_quality":"DEMO","min_depth_m":3.0,"max_depth_m":11.0,"access_type":"Boat","depth_class":"Shallow <=12m","data_origin":"demo","description":"Reef dive site with boat access. Depth values are demonstration attributes created for the WebGIS prototype."}},{"type":"Feature","id":19,"geometry":{"type":"Point","coordinates":[-80.4581,24.95439444444447]},"properties":{"site_name":"Conch Reef","mooring_count":3,"site_type":"Reef","depth_m":16.0,"depth_source":"Demo dataset","data_quality":"DEMO","min_depth_m":8.0,"max_depth_m":16.0,"access_type":"Boat","depth_class":"Moderate <=18m","data_origin":"demo","description":"Reef dive site with boat access. Depth values are demonstration attributes created for the WebGIS prototype."}},{"type":"Feature","id":20,"geometry":{"type":"Point","coordinates":[-80.45605,24.94673333333333]},"properties":{"site_name":"Conch Reef Wall","mooring_count":3,"site_type":"Wall","depth_m":32.0,"depth_source":"Demo dataset","data_quality":"DEMO","min_depth_m":24.0,"max_depth_m":32.0,"access_type":"Boat","depth_class":"Very Deep <=40m","data_origin":"demo","description":"Wall dive site with boat access. Depth values are demonstration attributes created for the WebGIS prototype."}},{"type":"Feature","id":21,"geometry":{"type":"Point","coordinates":[-81.91950897435898,24.614594871794875]},"properties":{"site_name":"Cottrell Key","mooring_count":13,"site_type":"Reef","depth_m":22.0,"depth_source":"Demo dataset","data_quality":"DEMO","min_depth_m":18.0,"max_depth_m":22.0,"access_type":"Boat","depth_class":"Deep <=30m","data_origin":"demo","description":"Reef dive site with boat access. Depth values are demonstration attributes created for the WebGIS prototype."}},{"type":"Feature","id":22,"geometry":{"type":"Point","coordinates":[-80.52294583333332,24.90718333333335]},"properties":{"site_name":"Crocker Reef","mooring_count":4,"site_type":"Reef","depth_m":28.0,"depth_source":"Demo dataset","data_quality":"DEMO","min_depth_m":22.0,"max_depth_m":28.0,"access_type":"Boat","depth_class":"Deep <=30m","data_origin":"demo","description":"Reef dive site with boat access. Depth values are demonstration attributes created for the WebGIS prototype."}},{"type":"Feature","id":23,"geometry":{"type":"Point","coordinates":[-80.50411388888888,24.922194444444454]},"properties":{"site_name":"Davis Ledge","mooring_count":6,"site_type":"Reef","depth_m":16.0,"depth_source":"Demo dataset","data_quality":"DEMO","min_depth_m":7.0,"max_depth_m":16.0,"access_type":"Boat","depth_class":"Moderate <=18m","data_origin":"demo","description":"Reef dive site with boat access. Depth values are demonstration attributes created for the WebGIS prototype."}},{"type":"Feature","id":24,"geometry":{"type":"Point","coordinates":[-80.38158333333335,24.989633333333302]},"properties":{"site_name":"Duane Wreck (Shipwreck Trail)","mooring_count":2,"site_type":"Wreck","depth_m":36.0,"depth_source":"FWC Artificial Reef Database","data_quality":"A","min_depth_m":29.0,"max_depth_m":36.0,"access_type":"Boat","depth_class":"Very Deep <=40m","data_origin":"official","description":"Wreck dive site with boat access. Maximum depth is based on available official source data."}},{"type":"Feature","id":25,"geometry":{"type":"Point","coordinates":[-80.570275,24.86975]},"properties":{"site_name":"Eagle Wreck (Shipwreck Trail)","mooring_count":2,"site_type":"Wreck","depth_m":33.5,"depth_source":"FWC Artificial Reef Database","data_quality":"A","min_depth_m":28.5,"max_depth_m":33.5,"access_type":"Boat","depth_class":"Very Deep <=40m","data_origin":"official","description":"Wreck dive site with boat access. Maximum depth is based on available official source data."}},{"type":"Feature","id":26,"geometry":{"type":"Point","coordinates":[-81.84532500000002,24.460166666666677]},"properties":{"site_name":"Eastern Dry Rocks","mooring_count":12,"site_type":"Reef","depth_m":23.0,"depth_source":"Demo dataset","data_quality":"DEMO","min_depth_m":17.0,"max_depth_m":23.0,"access_type":"Boat","depth_class":"Deep <=30m","data_origin":"demo","description":"Reef dive site with boat access. Depth values are demonstration attributes created for the WebGIS prototype."}},{"type":"Feature","id":27,"geometry":{"type":"Point","coordinates":[-80.25713030303031,25.143354545454564]},"properties":{"site_name":"Elbow","mooring_count":11,"site_type":"Reef","depth_m":24.0,"depth_source":"Demo dataset","data_quality":"DEMO","min_depth_m":15.0,"max_depth_m":24.0,"access_type":"Boat","depth_class":"Deep <=30m","data_origin":"demo","description":"Reef dive site with boat access. Depth values are demonstration attributes created for the WebGIS prototype."}},{"type":"Feature","id":28,"geometry":{"type":"Point","coordinates":[-80.3479925,25.03466083333334]},"properties":{"site_name":"French Reef","mooring_count":20,"site_type":"Reef","depth_m":18.0,"depth_source":"Demo dataset","data_quality":"DEMO","min_depth_m":13.0,"max_depth_m":18.0,"access_type":"Boat","depth_class":"Moderate <=18m","data_origin":"demo","description":"Reef dive site with boat access. Depth values are demonstration attributes created for the WebGIS prototype."}},{"type":"Feature","id":29,"geometry":{"type":"Point","coordinates":[-80.30549583333334,25.110772222222234]},"properties":{"site_name":"Grecian Rocks","mooring_count":12,"site_type":"Reef","depth_m":9.0,"depth_source":"Demo dataset","data_quality":"DEMO","min_depth_m":3.0,"max_depth_m":9.0,"access_type":"Boat","depth_class":"Shallow <=12m","data_origin":"demo","description":"Reef dive site with boat access. Depth values are demonstration attributes created for the WebGIS prototype."}},{"type":"Feature","id":30,"geometry":{"type":"Point","coordinates":[-80.54894833333333,24.93492333333332]},"properties":{"site_name":"Hen and Chickens","mooring_count":10,"site_type":"Reef","depth_m":26.0,"depth_source":"Demo dataset","data_quality":"DEMO","min_depth_m":17.0,"max_depth_m":26.0,"access_type":"Boat","depth_class":"Deep <=30m","data_origin":"demo","description":"Reef dive site with boat access. Depth values are demonstration attributes created for the WebGIS prototype."}},{"type":"Feature","id":31,"geometry":{"type":"Point","coordinates":[-80.29445,25.139133333333348]},"properties":{"site_name":"Horseshoe Reef","mooring_count":2,"site_type":"Reef","depth_m":26.0,"depth_source":"Demo dataset","data_quality":"DEMO","min_depth_m":21.0,"max_depth_m":26.0,"access_type":"Boat","depth_class":"Deep <=30m","data_origin":"demo","description":"Reef dive site with boat access. Depth values are demonstration attributes created for the WebGIS prototype."}},{"type":"Feature","id":32,"geometry":{"type":"Point","coordinates":[-81.7442833333333,24.464]},"properties":{"site_name":"Joe's Tug Wreck","mooring_count":1,"site_type":"Wreck","depth_m":19.8,"depth_source":"FWC Artificial Reef Database","data_quality":"A","min_depth_m":9.8,"max_depth_m":19.8,"access_type":"Boat","depth_class":"Deep <=30m","data_origin":"official","description":"Wreck dive site with boat access. Maximum depth is based on available official source data."}},{"type":"Feature","id":33,"geometry":{"type":"Point","coordinates":[-80.29785999999999,25.12346444444446]},"properties":{"site_name":"Key Largo Dry Rocks","mooring_count":15,"site_type":"Reef","depth_m":14.0,"depth_source":"Demo dataset","data_quality":"DEMO","min_depth_m":6.0,"max_depth_m":14.0,"access_type":"Boat","depth_class":"Moderate <=18m","data_origin":"demo","description":"Reef dive site with boat access. Depth values are demonstration attributes created for the WebGIS prototype."}},{"type":"Feature","id":34,"geometry":{"type":"Point","coordinates":[-81.40954239130434,24.545785507246375]},"properties":{"site_name":"Looe Key","mooring_count":46,"site_type":"Reef","depth_m":30.0,"depth_source":"Demo dataset","data_quality":"DEMO","min_depth_m":26.0,"max_depth_m":30.0,"access_type":"Boat","depth_class":"Deep <=30m","data_origin":"demo","description":"Reef dive site with boat access. Depth values are demonstration attributes created for the WebGIS prototype."}},{"type":"Feature","id":35,"geometry":{"type":"Point","coordinates":[-81.93315,24.444]},"properties":{"site_name":"Lost Reef","mooring_count":1,"site_type":"Reef","depth_m":24.0,"depth_source":"Demo dataset","data_quality":"DEMO","min_depth_m":15.0,"max_depth_m":24.0,"access_type":"Boat","depth_class":"Deep <=30m","data_origin":"demo","description":"Reef dive site with boat access. Depth values are demonstration attributes created for the WebGIS prototype."}},{"type":"Feature","id":36,"geometry":{"type":"Point","coordinates":[-81.04509444444447,24.690355555555538]},"properties":{"site_name":"Marker","mooring_count":3,"site_type":"Reef","depth_m":24.0,"depth_source":"Demo dataset","data_quality":"DEMO","min_depth_m":14.0,"max_depth_m":24.0,"access_type":"Boat","depth_class":"Deep <=30m","data_origin":"demo","description":"Reef dive site with boat access. Depth values are demonstration attributes created for the WebGIS prototype."}},{"type":"Feature","id":37,"geometry":{"type":"Point","coordinates":[-80.37506822916667,25.009028124999993]},"properties":{"site_name":"Molasses Reef","mooring_count":32,"site_type":"Reef","depth_m":21.0,"depth_source":"Demo dataset","data_quality":"DEMO","min_depth_m":13.0,"max_depth_m":21.0,"access_type":"Boat","depth_class":"Deep <=30m","data_origin":"demo","description":"Reef dive site with boat access. Depth values are demonstration attributes created for the WebGIS prototype."}},{"type":"Feature","id":38,"geometry":{"type":"Point","coordinates":[-81.85693333333336,24.56228333333335]},"properties":{"site_name":"Mule Key","mooring_count":2,"site_type":"Reef","depth_m":8.0,"depth_source":"Demo dataset","data_quality":"DEMO","min_depth_m":3.0,"max_depth_m":8.0,"access_type":"Boat","depth_class":"Shallow <=12m","data_origin":"demo","description":"Reef dive site with boat access. Depth values are demonstration attributes created for the WebGIS prototype."}},{"type":"Feature","id":39,"geometry":{"type":"Point","coordinates":[-81.39291666666666,24.615752777777768]},"properties":{"site_name":"Newfound Harbor","mooring_count":6,"site_type":"Reef","depth_m":13.0,"depth_source":"Demo dataset","data_quality":"DEMO","min_depth_m":5.0,"max_depth_m":13.0,"access_type":"Boat","depth_class":"Moderate <=18m","data_origin":"demo","description":"Reef dive site with boat access. Depth values are demonstration attributes created for the WebGIS prototype."}},{"type":"Feature","id":40,"geometry":{"type":"Point","coordinates":[-81.76423333333332,24.472094444444465]},"properties":{"site_name":"Nine Foot Stake","mooring_count":3,"site_type":"Reef","depth_m":18.0,"depth_source":"Demo dataset","data_quality":"DEMO","min_depth_m":8.0,"max_depth_m":18.0,"access_type":"Boat","depth_class":"Moderate <=18m","data_origin":"demo","description":"Reef dive site with boat access. Depth values are demonstration attributes created for the WebGIS prototype."}},{"type":"Feature","id":41,"geometry":{"type":"Point","coordinates":[-81.09345,24.63775]},"properties":{"site_name":"North American","mooring_count":1,"site_type":"Reef","depth_m":21.0,"depth_source":"Demo dataset","data_quality":"DEMO","min_depth_m":14.0,"max_depth_m":21.0,"access_type":"Boat","depth_class":"Deep <=30m","data_origin":"demo","description":"Reef dive site with boat access. Depth values are demonstration attributes created for the WebGIS prototype."}},{"type":"Feature","id":42,"geometry":{"type":"Point","coordinates":[-80.29378333333334,25.12993888888887]},"properties":{"site_name":"North Dry Rocks","mooring_count":3,"site_type":"Reef","depth_m":16.0,"depth_source":"Demo dataset","data_quality":"DEMO","min_depth_m":11.0,"max_depth_m":16.0,"access_type":"Boat","depth_class":"Moderate <=18m","data_origin":"demo","description":"Reef dive site with boat access. Depth values are demonstration attributes created for the WebGIS prototype."}},{"type":"Feature","id":43,"geometry":{"type":"Point","coordinates":[-80.20106111111113,25.307427777777765]},"properties":{"site_name":"North East Patch","mooring_count":3,"site_type":"Reef","depth_m":13.0,"depth_source":"Demo dataset","data_quality":"DEMO","min_depth_m":5.0,"max_depth_m":13.0,"access_type":"Boat","depth_class":"Moderate <=18m","data_origin":"demo","description":"Reef dive site with boat access. Depth values are demonstration attributes created for the WebGIS prototype."}},{"type":"Feature","id":44,"geometry":{"type":"Point","coordinates":[-80.28935555555556,25.136472222222235]},"properties":{"site_name":"North North Dry Rocks","mooring_count":3,"site_type":"Reef","depth_m":23.0,"depth_source":"Demo dataset","data_quality":"DEMO","min_depth_m":14.0,"max_depth_m":23.0,"access_type":"Boat","depth_class":"Deep <=30m","data_origin":"demo","description":"Reef dive site with boat access. Depth values are demonstration attributes created for the WebGIS prototype."}},{"type":"Feature","id":45,"geometry":{"type":"Point","coordinates":[-80.19885,25.3126]},"properties":{"site_name":"North Patch","mooring_count":3,"site_type":"Reef","depth_m":21.0,"depth_source":"Demo dataset","data_quality":"DEMO","min_depth_m":13.0,"max_depth_m":21.0,"access_type":"Boat","depth_class":"Deep <=30m","data_origin":"demo","description":"Reef dive site with boat access. Depth values are demonstration attributes created for the WebGIS prototype."}},{"type":"Feature","id":46,"geometry":{"type":"Point","coordinates":[-81.6304375,24.5005125]},"properties":{"site_name":"Pelican Shoal","mooring_count":4,"site_type":"Reef","depth_m":16.0,"depth_source":"Demo dataset","data_quality":"DEMO","min_depth_m":11.0,"max_depth_m":16.0,"access_type":"Boat","depth_class":"Moderate <=18m","data_origin":"demo","description":"Reef dive site with boat access. Depth values are demonstration attributes created for the WebGIS prototype."}},{"type":"Feature","id":47,"geometry":{"type":"Point","coordinates":[-80.41265333333332,24.988333333333337]},"properties":{"site_name":"Pickles Reef","mooring_count":5,"site_type":"Reef","depth_m":11.0,"depth_source":"Demo dataset","data_quality":"DEMO","min_depth_m":5.0,"max_depth_m":11.0,"access_type":"Boat","depth_class":"Shallow <=12m","data_origin":"demo","description":"Reef dive site with boat access. Depth values are demonstration attributes created for the WebGIS prototype."}},{"type":"Feature","id":48,"geometry":{"type":"Point","coordinates":[-81.85823787878789,24.45496212121212]},"properties":{"site_name":"Rock Key","mooring_count":11,"site_type":"Reef","depth_m":25.0,"depth_source":"Demo dataset","data_quality":"DEMO","min_depth_m":15.0,"max_depth_m":25.0,"access_type":"Boat","depth_class":"Deep <=30m","data_origin":"demo","description":"Reef dive site with boat access. Depth values are demonstration attributes created for the WebGIS prototype."}},{"type":"Feature","id":49,"geometry":{"type":"Point","coordinates":[-80.5723166666667,24.89525]},"properties":{"site_name":"Rocky Top","mooring_count":1,"site_type":"Reef","depth_m":27.0,"depth_source":"Demo dataset","data_quality":"DEMO","min_depth_m":18.0,"max_depth_m":27.0,"access_type":"Boat","depth_class":"Deep <=30m","data_origin":"demo","description":"Reef dive site with boat access. Depth values are demonstration attributes created for the WebGIS prototype."}},{"type":"Feature","id":50,"geometry":{"type":"Point","coordinates":[-80.67982083333332,24.863312499999978]},"properties":{"site_name":"San Pedro Wreck (Shipwreck Trail)","mooring_count":4,"site_type":"Wreck","depth_m":33.0,"depth_source":"Demo dataset","data_quality":"DEMO","min_depth_m":28.0,"max_depth_m":33.0,"access_type":"Boat","depth_class":"Very Deep <=40m","data_origin":"demo","description":"Wreck dive site with boat access. Depth values are demonstration attributes created for the WebGIS prototype."}},{"type":"Feature","id":51,"geometry":{"type":"Point","coordinates":[-80.36726666666665,25.0185]},"properties":{"site_name":"Sand Island","mooring_count":4,"site_type":"Reef","depth_m":20.0,"depth_source":"Demo dataset","data_quality":"DEMO","min_depth_m":10.0,"max_depth_m":20.0,"access_type":"Boat","depth_class":"Deep <=30m","data_origin":"demo","description":"Reef dive site with boat access. Depth values are demonstration attributes created for the WebGIS prototype."}},{"type":"Feature","id":52,"geometry":{"type":"Point","coordinates":[-81.87761858974358,24.45248269230769]},"properties":{"site_name":"Sand Key Reef","mooring_count":26,"site_type":"Reef","depth_m":15.0,"depth_source":"Demo dataset","data_quality":"DEMO","min_depth_m":11.0,"max_depth_m":15.0,"access_type":"Boat","depth_class":"Moderate <=18m","data_origin":"demo","description":"Reef dive site with boat access. Depth values are demonstration attributes created for the WebGIS prototype."}},{"type":"Feature","id":53,"geometry":{"type":"Point","coordinates":[-80.42049166666665,24.9822]},"properties":{"site_name":"Snapper Ledge","mooring_count":2,"site_type":"Reef","depth_m":13.0,"depth_source":"Demo dataset","data_quality":"DEMO","min_depth_m":8.0,"max_depth_m":13.0,"access_type":"Boat","depth_class":"Moderate <=18m","data_origin":"demo","description":"Reef dive site with boat access. Depth values are demonstration attributes created for the WebGIS prototype."}},{"type":"Feature","id":54,"geometry":{"type":"Point","coordinates":[-81.11034637681159,24.625602173913045]},"properties":{"site_name":"Sombrero Reef","mooring_count":23,"site_type":"Reef","depth_m":20.0,"depth_source":"Demo dataset","data_quality":"DEMO","min_depth_m":13.0,"max_depth_m":20.0,"access_type":"Boat","depth_class":"Deep <=30m","data_origin":"demo","description":"Reef dive site with boat access. Depth values are demonstration attributes created for the WebGIS prototype."}},{"type":"Feature","id":55,"geometry":{"type":"Point","coordinates":[-80.31220416666667,25.06639583333335]},"properties":{"site_name":"Spiegel Grove Wreck","mooring_count":4,"site_type":"Wreck","depth_m":41.1,"depth_source":"FWC Artificial Reef Database","data_quality":"A","min_depth_m":34.1,"max_depth_m":41.1,"access_type":"Boat","depth_class":"Beyond 40m","data_origin":"official","description":"Wreck dive site with boat access. Maximum depth is based on available official source data."}},{"type":"Feature","id":56,"geometry":{"type":"Point","coordinates":[-80.39573333333334,25.027425]},"properties":{"site_name":"Three Sisters","mooring_count":2,"site_type":"Reef","depth_m":18.0,"depth_source":"Demo dataset","data_quality":"DEMO","min_depth_m":9.0,"max_depth_m":18.0,"access_type":"Boat","depth_class":"Moderate <=18m","data_origin":"demo","description":"Reef dive site with boat access. Depth values are demonstration attributes created for the WebGIS prototype."}},{"type":"Feature","id":57,"geometry":{"type":"Point","coordinates":[-81.74348888888886,24.4739888888889]},"properties":{"site_name":"Toppinos Marker","mooring_count":3,"site_type":"Reef","depth_m":19.0,"depth_source":"Demo dataset","data_quality":"DEMO","min_depth_m":12.0,"max_depth_m":19.0,"access_type":"Boat","depth_class":"Deep <=30m","data_origin":"demo","description":"Reef dive site with boat access. Depth values are demonstration attributes created for the WebGIS prototype."}},{"type":"Feature","id":58,"geometry":{"type":"Point","coordinates":[-80.21513452380951,25.2855880952381]},"properties":{"site_name":"Turtle Rocks","mooring_count":14,"site_type":"Reef","depth_m":28.0,"depth_source":"Demo dataset","data_quality":"DEMO","min_depth_m":22.0,"max_depth_m":28.0,"access_type":"Boat","depth_class":"Deep <=30m","data_origin":"demo","description":"Reef dive site with boat access. Depth values are demonstration attributes created for the WebGIS prototype."}},{"type":"Feature","id":59,"geometry":{"type":"Point","coordinates":[-81.73740833333335,24.459600000000002]},"properties":{"site_name":"Vandenberg Wreck","mooring_count":2,"site_type":"Wreck","depth_m":44.2,"depth_source":"FWC Artificial Reef Database","data_quality":"A","min_depth_m":35.2,"max_depth_m":44.2,"access_type":"Boat","depth_class":"Beyond 40m","data_origin":"official","description":"Wreck dive site with boat access. Maximum depth is based on available official source data."}},{"type":"Feature","id":60,"geometry":{"type":"Point","coordinates":[-81.92709166666666,24.44521250000001]},"properties":{"site_name":"Western Dry Rocks","mooring_count":8,"site_type":"Reef","depth_m":18.0,"depth_source":"Demo dataset","data_quality":"DEMO","min_depth_m":12.0,"max_depth_m":18.0,"access_type":"Boat","depth_class":"Moderate <=18m","data_origin":"demo","description":"Reef dive site with boat access. Depth values are demonstration attributes created for the WebGIS prototype."}},{"type":"Feature","id":61,"geometry":{"type":"Point","coordinates":[-81.71241590909091,24.481334848484856]},"properties":{"site_name":"Western Sambo","mooring_count":22,"site_type":"Reef","depth_m":19.0,"depth_source":"Demo dataset","data_quality":"DEMO","min_depth_m":14.0,"max_depth_m":19.0,"access_type":"Boat","depth_class":"Deep <=30m","data_origin":"demo","description":"Reef dive site with boat access. Depth values are demonstration attributes created for the WebGIS prototype."}},{"type":"Feature","id":62,"geometry":{"type":"Point","coordinates":[-80.37102708333333,25.041825000000014]},"properties":{"site_name":"White Banks","mooring_count":8,"site_type":"Reef","depth_m":29.0,"depth_source":"Demo dataset","data_quality":"DEMO","min_depth_m":24.0,"max_depth_m":29.0,"access_type":"Boat","depth_class":"Deep <=30m","data_origin":"demo","description":"Reef dive site with boat access. Depth values are demonstration attributes created for the WebGIS prototype."}},{"type":"Feature","id":63,"geometry":{"type":"Point","coordinates":[-80.3963666666667,25.0216666666667]},"properties":{"site_name":"Wolfe Reef","mooring_count":1,"site_type":"Reef","depth_m":29.0,"depth_source":"Demo dataset","data_quality":"DEMO","min_depth_m":19.0,"max_depth_m":29.0,"access_type":"Boat","depth_class":"Deep <=30m","data_origin":"demo","description":"Reef dive site with boat access. Depth values are demonstration attributes created for the WebGIS prototype."}}]}
